0 SL-14 DEB
1 20308U 89080G   13282.28388285  .00002126  00000-0  74638-3 0  1341
2 20308 082.6534 018.0842 0987987 315.8135 060.3952 12.92740843115608
0 SL-14 DEB
1 20308U 89080G   13284.00872839  .00002411  00000-0  84684-3 0  1356
2 20308 082.6536 016.9090 0987977 311.5865 167.6060 12.92744332115826
0 SL-14 DEB
1 20308U 89080G   13285.30868537  .00001794  00000-0  62918-3 0  1371
2 20308 082.6539 016.0235 0988029 308.3962 097.4499 12.92751197115993
0 SL-14 DEB
1 20308U 89080G   13285.72438627  .00001876  00000-0  65843-3 0  1382
2 20308 082.6539 015.7401 0988012 307.3785 232.0804 12.92752742116049
0 SL-14 DEB
1 20308U 89080G   13286.31701030  .00001793  00000-0  62913-3 0  1393
2 20308 082.6540 015.3363 0987992 305.9268 110.0955 12.92755550116121
0 SL-14 DEB
1 20308U 89080G   13287.23829841  .00002146  00000-0  75354-3 0  1404
2 20308 082.6539 014.7083 0987945 303.6700 077.7002 12.92758721116243
0 SL-14 DEB
1 20308U 89080G   13288.24343319  .00003210  00000-0  11279-2 0  1416
2 20308 082.6537 014.0234 0987953 301.2073 075.5428 12.92764794116377
0 SL-14 DEB
1 20308U 89080G   13289.24699766  .00002551  00000-0  89678-3 0  1424
2 20308 082.6543 013.3412 0987805 298.7571 066.0867 12.92769799116500
0 SL-14 DEB
1 20308U 89080G   13290.17788406  .00003191  00000-0  11222-2 0  1439
2 20308 082.6542 012.7072 0987813 296.4743 078.4213 12.92770778116623
0 SL-14 DEB
1 20308U 89080G   13291.18538161  .00003773  00000-0  13271-2 0  1445
2 20308 082.6539 012.0207 0987809 294.0036 087.3126 12.92773629116750
0 SL-14 DEB
1 20308U 89080G   13291.26847522  .00003845  00000-0  13530-2 0  1457
2 20308 082.6539 011.9643 0987730 293.8013 114.0300 12.92773089116760
0 SL-14 DEB
1 20308U 89080G   13291.98092661  .00004060  00000-0  14286-2 0  1462
2 20308 082.6538 011.4786 0987746 292.0543 189.7833 12.92775434116854
0 SL-14 DEB
1 20308U 89080G   13292.27466843  .00004173  00000-0  14676-2 0  1471
2 20308 082.6538 011.2784 0987816 291.3336 116.8603 12.92778262116892
0 SL-14 DEB
1 20308U 89080G   13292.69000457  .00004205  00000-0  14789-2 0  1484
2 20308 082.6535 010.9952 0987818 290.3161 249.8411 12.92781607116946
0 SL-14 DEB
1 20308U 89080G   13293.19652641  .00004147  00000-0  14580-2 0  1493
2 20308 082.6535 010.6502 0987861 289.0746 087.2069 12.92785709117015
0 SL-14 DEB
1 20308U 89080G   13293.69498457  .00003865  00000-0  13584-2 0  1502
2 20308 082.6532 010.3104 0987851 287.8536 247.0494 12.92790672117078
0 SL-14 DEB
1 20308U 89080G   13294.20265749  .00003806  00000-0  13375-2 0  1510
2 20308 082.6531 009.9644 0987843 286.6096 089.7851 12.92795547117141
0 SL-14 DEB
1 20308U 89080G   13295.20868762  .00003280  00000-0  11509-2 0  1529
2 20308 082.6520 009.2777 0988065 284.1435 091.9278 12.92802820117271
0 SL-14 DEB
1 20308U 89080G   13295.52643644  .00003420  00000-0  12014-2 0  1533
2 20308 082.6529 009.0622 0987863 283.3664 130.7596 12.92804591117314
0 SL-14 DEB
1 20308U 89080G   13296.21529093  .00003754  00000-0  13189-2 0  1546
2 20308 082.6526 008.5925 0987835 281.6776 096.7652 12.92807769117409
